{"type": "FeatureCollection", "features": [ {"type": "Feature", "properties": {"norad_id": 35284, "name": "COSMOS 2251 DEB", "group": "cosmos-2251-debris", "lat": 68.93136363449574, "lon": 46.1745863829376, "alt_km": 761.5189490667581, "timestamp": "2025-12-07T11:27:50.403100+00:00", "meta": {"OBJECT_NAME": "COSMOS 2251 DEB", "OBJECT_ID": "1993-036AJN", "EPOCH": "2025-12-06T14:07:12.355680", "MEAN_MOTION": 14.38306996, "ECCENTRICITY": 0.00165553, "INCLINATION": 74.0489, "RA_OF_ASC_NODE": 275.7489, "ARG_OF_PERICENTER": 353.4486, "MEAN_ANOMALY": 187.2786, "EPHEMERIS_TYPE": 0, "CLASSIFICATION_TYPE": "U", "NORAD_CAT_ID": 35284, "ELEMENT_SET_NO": 999, "REV_AT_EPOCH": 65437, "BSTAR": 0.00034127282, "MEAN_MOTION_DOT": 1.014e-05, "MEAN_MOTION_DDOT": 0}, "tle": {"line1": "1 35284U 93036AJN 25340.58833745  .00001014  00000+0  34127-3 0  9995", "line2": "2 35284  74.0489 275.7489 0016555 353.4486 187.2786 14.38306996654376"}}, "geometry": {"type": "Point", "coordinates": [46.1745863829376, 68.93136363449574]}}, {"type": "Feature", "properties": {"norad_id": 35287, "name": "COSMOS 2251 DEB", "group": "cosmos-2251-debris", "lat": -42.0570401444558, "lon": -89.16727860520163, "alt_km": 772.1275698176614, "timestamp": "2025-12-07T11:27:50.403110+00:00", "meta": {"OBJECT_NAME": "COSMOS 2251 DEB", "OBJECT_ID": "1993-036AJR", "EPOCH": "2025-12-06T20:46:38.621856", "MEAN_MOTION": 14.36368234, "ECCENTRICITY": 0.00173089, "INCLINATION": 74.0302, "RA_OF_ASC_NODE": 286.9293, "ARG_OF_PERICENTER": 25.2797, "MEAN_ANOMALY": 7.7875, "EPHEMERIS_TYPE": 0, "CLASSIFICATION_TYPE": "U", "NORAD_CAT_ID": 35287, "ELEMENT_SET_NO": 999, "REV_AT_EPOCH": 86808, "BSTAR": 0.00028016329, "MEAN_MOTION_DOT": 7.95e-06, "MEAN_MOTION_DDOT": 0}, "tle": {"line1": "1 35287U 93036AJR 25340.86572479  .00000795  00000+0  28016-3 0  9998", "line2": "2 35287  74.0302 286.9293 0017308  25.2797   7.7875 14.36368234868087"}}, "geometry": {"type": "Point", "coordinates": [-89.16727860520163, -42.0570401444558]}}, {"type": "Feature", "properties": {"norad_id": 35288, "name": "COSMOS 2251 DEB", "group": "cosmos-2251-debris", "lat": -72.49027822878736, "lon": -40.488283254143795, "alt_km": 656.1751494026539, "timestamp": "2025-12-07T11:27:50.403120+00:00", "meta": {"OBJECT_NAME": "COSMOS 2251 DEB", "OBJECT_ID": "1993-036AJS", "EPOCH": "2025-12-05T20:30:59.855616", "MEAN_MOTION": 14.65344236, "ECCENTRICITY": 0.00396154, "INCLINATION": 73.9509, "RA_OF_ASC_NODE": 28.4958, "ARG_OF_PERICENTER": 262.8912, "MEAN_ANOMALY": 96.775, "EPHEMERIS_TYPE": 0, "CLASSIFICATION_TYPE": "U", "NORAD_CAT_ID": 35288, "ELEMENT_SET_NO": 999, "REV_AT_EPOCH": 87777, "BSTAR": 0.0019659658, "MEAN_MOTION_DOT": 0.00010724, "MEAN_MOTION_DDOT": 0}, "tle": {"line1": "1 35288U 93036AJS 25339.85485944  .00010724  00000+0  19660-2 0  9993", "line2": "2 35288  73.9509  28.4958 0039615 262.8912  96.7750 14.65344236877779"}}, "geometry": {"type": "Point", "coordinates": [-40.488283254143795, -72.49027822878736]}}, {"type": "Feature", "properties": {"norad_id": 35290, "name": "COSMOS 2251 DEB", "group": "cosmos-2251-debris", "lat": -73.21938095972266, "lon": -2.1993174430105853, "alt_km": 635.1855962878772, "timestamp": "2025-12-07T11:27:50.403130+00:00", "meta": {"OBJECT_NAME": "COSMOS 2251 DEB", "OBJECT_ID": "1993-036AJU", "EPOCH": "2025-12-06T16:22:51.987360", "MEAN_MOTION": 14.8010207, "ECCENTRICITY": 0.00029414, "INCLINATION": 74.0059, "RA_OF_ASC_NODE": 71.3921, "ARG_OF_PERICENTER": 204.4724, "MEAN_ANOMALY": 155.6313, "EPHEMERIS_TYPE": 0, "CLASSIFICATION_TYPE": "U", "NORAD_CAT_ID": 35290, "ELEMENT_SET_NO": 999, "REV_AT_EPOCH": 87868, "BSTAR": 0.0036735181, "MEAN_MOTION_DOT": 0.00027947, "MEAN_MOTION_DDOT": 0}, "tle": {"line1": "1 35290U 93036AJU 25340.68254615  .00027947  00000+0  36735-2 0  9995", "line2": "2 35290  74.0059  71.3921 0002941 204.4724 155.6313 14.80102070878682"}}, "geometry": {"type": "Point", "coordinates": [-2.1993174430105853, -73.21938095972266]}}, {"type": "Feature", "properties": {"norad_id": 35432, "name": "COSMOS 2251 DEB", "group": "cosmos-2251-debris", "lat": 67.74866151203581, "lon": 71.08530407144774, "alt_km": 494.65547215778224, "timestamp": "2025-12-07T11:27:50.403140+00:00", "meta": {"OBJECT_NAME": "COSMOS 2251 DEB", "OBJECT_ID": "1993-036AKA", "EPOCH": "2025-12-06T13:02:26.977920", "MEAN_MOTION": 15.20957014, "ECCENTRICITY": 0.00121909, "INCLINATION": 74.0212, "RA_OF_ASC_NODE": 28.5919, "ARG_OF_PERICENTER": 348.2705, "MEAN_ANOMALY": 11.8207, "EPHEMERIS_TYPE": 0, "CLASSIFICATION_TYPE": "U", "NORAD_CAT_ID": 35432, "ELEMENT_SET_NO": 999, "REV_AT_EPOCH": 87409, "BSTAR": 0.0090355975, "MEAN_MOTION_DOT": 0.00206244, "MEAN_MOTION_DDOT": 0}, "tle": {"line1": "1 35432U 93036AKA 25340.54336780  .00206244  00000+0  90356-2 0  9990", "line2": "2 35432  74.0212  28.5919 0012190 348.2705  11.8207 15.20957014874092"}}, "geometry": {"type": "Point", "coordinates": [71.08530407144774, 67.74866151203581]}}, {"type": "Feature", "properties": {"norad_id": 35433, "name": "COSMOS 2251 DEB", "group": "cosmos-2251-debris", "lat": 68.0735575370131, "lon": 122.75285908198771, "alt_km": 759.8851960349439, "timestamp": "2025-12-07T11:27:50.403150+00:00", "meta": {"OBJECT_NAME": "COSMOS 2251 DEB", "OBJECT_ID": "1993-036AKB", "EPOCH": "2025-12-05T19:38:16.327392", "MEAN_MOTION": 14.34730306, "ECCENTRICITY": 0.00254596, "INCLINATION": 74.0335, "RA_OF_ASC_NODE": 351.128, "ARG_OF_PERICENTER": 48.4343, "MEAN_ANOMALY": 128.9694, "EPHEMERIS_TYPE": 0, "CLASSIFICATION_TYPE": "U", "NORAD_CAT_ID": 35433, "ELEMENT_SET_NO": 999, "REV_AT_EPOCH": 86481, "BSTAR": 0.00044039966, "MEAN_MOTION_DOT": 1.226e-05, "MEAN_MOTION_DDOT": 0}, "tle": {"line1": "1 35433U 93036AKB 25339.81824453  .00001226  00000+0  44040-3 0  9991", "line2": "2 35433  74.0335 351.1280 0025459  48.4343 128.9694 14.34730306864810"}}, "geometry": {"type": "Point", "coordinates": [122.75285908198771, 68.0735575370131]}}, {"type": "Feature", "properties": {"norad_id": 35434, "name": "COSMOS 2251 DEB", "group": "cosmos-2251-debris", "lat": -10.211904196811036, "lon": 46.07731317600451, "alt_km": 825.2567692858029, "timestamp": "2025-12-07T11:27:50.403160+00:00", "meta": {"OBJECT_NAME": "COSMOS 2251 DEB", "OBJECT_ID": "1993-036AKC", "EPOCH": "2025-12-06T22:46:33.094560", "MEAN_MOTION": 14.25661537, "ECCENTRICITY": 0.00875949, "INCLINATION": 74.0405, "RA_OF_ASC_NODE": 224.0762, "ARG_OF_PERICENTER": 296.0242, "MEAN_ANOMALY": 63.1904, "EPHEMERIS_TYPE": 0, "CLASSIFICATION_TYPE": "U", "NORAD_CAT_ID": 35434, "ELEMENT_SET_NO": 999, "REV_AT_EPOCH": 86035, "BSTAR": 0.0011045236, "MEAN_MOTION_DOT": 2.7e-05, "MEAN_MOTION_DDOT": 0}, "tle": {"line1": "1 35434U 93036AKC 25340.94899415  .00002700  00000+0  11045-2 0  9994", "line2": "2 35434  74.0405 224.0762 0087594 296.0242  63.1904 14.25661537860357"}}, "geometry": {"type": "Point", "coordinates": [46.07731317600451, -10.211904196811036]}}, {"type": "Feature", "properties": {"norad_id": 35435, "name": "COSMOS 2251 DEB", "group": "cosmos-2251-debris", "lat": 66.3066079928867, "lon": -106.37690919561993, "alt_km": 629.3794585349051, "timestamp": "2025-12-07T11:27:50.403171+00:00", "meta": {"OBJECT_NAME": "COSMOS 2251 DEB", "OBJECT_ID": "1993-036AKD", "EPOCH": "2025-12-06T15:33:19.570752", "MEAN_MOTION": 14.78155636, "ECCENTRICITY": 0.00089158, "INCLINATION": 74.011, "RA_OF_ASC_NODE": 116.0521, "ARG_OF_PERICENTER": 210.6381, "MEAN_ANOMALY": 164.7127, "EPHEMERIS_TYPE": 0, "CLASSIFICATION_TYPE": "U", "NORAD_CAT_ID": 35435, "ELEMENT_SET_NO": 999, "REV_AT_EPOCH": 87449, "BSTAR": 0.0041982547, "MEAN_MOTION_DOT": 0.00030535, "MEAN_MOTION_DDOT": 0}, "tle": {"line1": "1 35435U 93036AKD 25340.64814318  .00030535  00000+0  41983-2 0  9992", "line2": "2 35435  74.0110 116.0521 0008915 210.6381 164.7127 14.78155636874491"}}, "geometry": {"type": "Point", "coordinates": [-106.37690919561993, 66.3066079928867]}}, {"type": "Feature", "properties": {"norad_id": 35439, "name": "COSMOS 2251 DEB", "group": "cosmos-2251-debris", "lat": -31.762920115474518, "lon": -26.024672111864948, "alt_km": 954.3904182605711, "timestamp": "2025-12-07T11:27:50.403181+00:00", "meta": {"OBJECT_NAME": "COSMOS 2251 DEB", "OBJECT_ID": "1993-036AKH", "EPOCH": "2025-12-06T05:59:35.063232", "MEAN_MOTION": 13.92766526, "ECCENTRICITY": 0.02419007, "INCLINATION": 74.0202, "RA_OF_ASC_NODE": 145.8594, "ARG_OF_PERICENTER": 316.5639, "MEAN_ANOMALY": 224.7042, "EPHEMERIS_TYPE": 0, "CLASSIFICATION_TYPE": "U", "NORAD_CAT_ID": 35439, "ELEMENT_SET_NO": 999, "REV_AT_EPOCH": 83870, "BSTAR": 0.0024796152, "MEAN_MOTION_DOT": 4.056e-05, "MEAN_MOTION_DDOT": 0}, "tle": {"line1": "1 35439U 93036AKH 25340.24971138  .00004056  00000+0  24796-2 0  9998", "line2": "2 35439  74.0202 145.8594 0241900 316.5639 224.7042 13.92766526838700"}}, "geometry": {"type": "Point", "coordinates": [-26.024672111864948, -31.762920115474518]}}, {"type": "Feature", "properties": {"norad_id": 35440, "name": "COSMOS 2251 DEB", "group": "cosmos-2251-debris", "lat": -66.40678644400302, "lon": 176.8016933614937, "alt_km": 656.7911057134597, "timestamp": "2025-12-07T11:27:50.403190+00:00", "meta": {"OBJECT_NAME": "COSMOS 2251 DEB", "OBJECT_ID": "1993-036AKJ", "EPOCH": "2025-12-06T22:42:44.249472", "MEAN_MOTION": 14.68767431, "ECCENTRICITY": 0.00690638, "INCLINATION": 74.015, "RA_OF_ASC_NODE": 218.8517, "ARG_OF_PERICENTER": 1.0906, "MEAN_ANOMALY": 359.0401, "EPHEMERIS_TYPE": 0, "CLASSIFICATION_TYPE": "U", "NORAD_CAT_ID": 35440, "ELEMENT_SET_NO": 999, "REV_AT_EPOCH": 68680, "BSTAR": 0.00081984037, "MEAN_MOTION_DOT": 4.928e-05, "MEAN_MOTION_DDOT": 0}, "tle": {"line1": "1 35440U 93036AKJ 25340.94634548  .00004928  00000+0  81984-3 0  9999", "line2": "2 35440  74.0150 218.8517 0069063   1.0906 359.0401 14.68767431686804"}}, "geometry": {"type": "Point", "coordinates": [176.8016933614937, -66.40678644400302]}}]}